[
    {
        "Altitude(m)": 604969.0891613656,
        "Argument of Periapsis(deg)": 0.0,
        "Eccentricity": 0.0,
        "Inclination(deg)": 60.0,
        "Latitude(deg)": -0.09268160029923911,
        "Longitude(deg)": -150.02247253315645,
        "Mean Anomaly(deg)": 0.0,
        "RAAN(deg)": 310.0,
        "Satellite Name": "Test1 1364",
        "Satellite Number": 1364,
        "Semi-Major Axis(m)": 6980739.136638005,
        "Time(s)": 0
    },
    {
        "Altitude(m)": 604900.0285095208,
        "Argument of Periapsis(deg)": 0.00010418945913296404,
        "Eccentricity": 0.0,
        "Inclination(deg)": 60.0,
        "Latitude(deg)": 0.44774389069750253,
        "Longitude(deg)": -149.75434869928978,
        "Mean Anomaly(deg)": 0.620106145461853,
        "RAAN(deg)": 309.99957995086027,
        "Satellite Name": "Test1 1364",
        "Satellite Number": 1364,
        "Semi-Major Axis(m)": 6980739.136638005,
        "Time(s)": 10
    }
]